NORAD_CAT_ID,OBJECT_NAME,OBJECT_TYPE,EPOCH,MEAN_MOTION,ECCENTRICITY,INCLINATION,RA_OF_ASC_NODE,ARG_OF_PERICENTER,MEAN_ANOMALY,BSTAR,MEAN_MOTION_DOT,MEAN_MOTION_DDOT,TLE_LINE0,TLE_LINE1,TLE_LINE2,SEMIMAJOR_AXIS,PERIOD,APOGEE,PERIGEE,DECAYED
53863.0,STARLINK-4788,PAYLOAD,2022-10-26 14:00:01,15.73262824,0.0001906999999999,53.2154,72.9792,32.9379,277.4981,-0.000281,-0.00039979,0.0,0 STARLINK-4788,1 53863U 22114AX  22299.58334491 -.00039979  00000-0 -28100-3 0  9999,2 53863  53.2154  72.9792 0001907  32.9379 277.4981 15.73262824  1305,6727.715999999999,91.53,350.86400000000015,348.298,0.0
53863.0,STARLINK-4788,PAYLOAD,2022-10-26 22:00:00,15.73232107,0.000206,53.2154,71.3301,26.4003,13.0245,-3.5479000000000004e-05,-5.605e-05,0.0,0 STARLINK-4788,1 53863U 22114AX  22299.91667824 -.00005605  00000-0 -35479-4 0  9992,2 53863  53.2154  71.3301 0002060  26.4003  13.0245 15.73232107  1305,6727.804,91.531,351.055,348.283,0.0
53863.0,STARLINK-4788,PAYLOAD,2022-10-27 08:00:01,15.73223471,0.0001894,53.2158,69.2662,31.4203,209.2103,-0.00022091,-0.00031541,0.0,0 STARLINK-4788,1 53863U 22114AX  22300.33334491 -.00031541  00000-0 -22091-3 0  9995,2 53863  53.2158  69.2662 0001894  31.4203 209.2103 15.73223471  6601,6727.828,91.532,350.968,348.4190000000001,0.0
53863.0,STARLINK-4788,PAYLOAD,2022-10-27 14:00:01,15.7317857,0.0002106999999999,53.2156,68.0308,26.8832,190.5317,0.00029982,0.00041629,0.0,0 STARLINK-4788,1 53863U 22114AX  22300.58335648  .00041629  00000-0  29982-3 0  9999,2 53863  53.2156  68.0308 0002107  26.8832 190.5317 15.73178570  1307,6727.956,91.534,351.23900000000015,348.404,0.0
53863.0,STARLINK-4788,PAYLOAD,2022-10-27 22:00:00,15.73256543,0.0002218,53.2151,66.3816,24.4855,281.7776,-8.8e-05,-0.00012984,0.0,0 STARLINK-4788,1 53863U 22114AX  22300.91667824 -.00012984  00000-0 -88000-4 0  9991,2 53863  53.2151  66.3816 0002218  24.4855 281.7776 15.73256543  1308,6727.734,91.53,351.091,348.107,0.0
53863.0,STARLINK-4788,PAYLOAD,2022-10-28 00:00:02,15.73283806,0.0002186,53.2152,65.9686,26.5051,32.0633,-0.00053623,-0.00075484,0.0,0 STARLINK-4788,1 53863U 22114AX  22301.00002315 -.00075484  00000-0 -53623-3 0  9996,2 53863  53.2152  65.9686 0002186  26.5051  32.0633 15.73283806  6704,6727.656,91.528,350.992,348.051,0.0
53863.0,STARLINK-4788,PAYLOAD,2022-10-28 14:00:01,15.73191281,0.0002305,53.2155,63.0824,28.8655,95.4117,-8.385e-05,-0.00012369,0.0,0 STARLINK-4788,1 53863U 22114AX  22301.58335648 -.00012369  00000-0 -83850-4 0  9996,2 53863  53.2155  63.0824 0002305  28.8655  95.4117 15.73191281  1304,6727.92,91.534,351.336,348.2340000000001,0.0
53863.0,STARLINK-4788,PAYLOAD,2022-10-28 22:00:01,15.73237925,0.0002356999999999,53.2155,61.4331,26.2444,186.929,-0.00029931,-0.0004249,0.0,0 STARLINK-4788,1 53863U 22114AX  22301.91668981 -.00042490  00000-0 -29931-3 0  9999,2 53863  53.2155  61.4331 0002357  26.2444 186.9290 15.73237925  6853,6727.7869999999975,91.531,351.23800000000006,348.066,0.0
53863.0,STARLINK-4788,PAYLOAD,2022-10-29 12:00:00,15.73210693,0.0002275999999999,53.2157,58.54600000000001,18.9648,259.8104,0.00031758,0.00044208,0.0,0 STARLINK-4788,1 53863U 22114AX  22302.50001157  .00044208  00000-0  31758-3 0  9998,2 53863  53.2157  58.5460 0002276  18.9648 259.8104 15.73210693  1301,6727.865,91.533,351.261,348.1980000000001,0.0
53863.0,STARLINK-4788,PAYLOAD,2022-10-29 22:00:01,15.73249574,0.000247,53.215,56.4843,16.7694,103.2725,-1.4086000000000004e-06,-8.21e-06,0.0,0 STARLINK-4788,1 53863U 22114AX  22302.91668981 -.00000821  00000-0 -14086-5 0  9999,2 53863  53.2150  56.4843 0002470  16.7694 103.2725 15.73249574  1300,6727.754,91.53,351.281,347.957,0.0
53863.0,STARLINK-4788,PAYLOAD,2022-10-30 00:00:00,15.73274377,0.000239,53.2151,56.0714,17.4609,214.7543,-0.00037018,-0.00052424,0.0,0 STARLINK-4788,1 53863U 22114AX  22303.00001157 -.00052424  00000-0 -37018-3 0  9990,2 53863  53.2151  56.0714 0002390  17.4609 214.7543 15.73274377  7029,6727.683000000001,91.529,351.156,347.94,0.0
53863.0,STARLINK-4788,PAYLOAD,2022-10-30 14:00:01,15.73201864,0.0002599,53.2152,53.1857,17.2729,280.5339,-0.00053079,-0.00074479,0.0,0 STARLINK-4788,1 53863U 22114AX  22303.58334491 -.00074479  00000-0 -53079-3 0  9992,2 53863  53.2152  53.1857 0002599  17.2729 280.5339 15.73201864  1308,6727.89,91.533,351.50300000000016,348.006,0.0
53863.0,STARLINK-4788,PAYLOAD,2022-10-30 22:00:01,15.73169626,0.0002693,53.2153,51.5358,14.5003,12.2689,0.00046299,0.00064782,0.0,0 STARLINK-4788,1 53863U 22114AX  22303.91668981  .00064782  00000-0  46299-3 0  9993,2 53863  53.2153  51.5358 0002693  14.5003  12.2689 15.73169626  1304,6727.982,91.535,351.659,348.035,0.0
53863.0,STARLINK-4788,PAYLOAD,2022-10-31 14:00:01,15.73194291,0.0002877,53.2152,48.2371,17.6278,186.9231,-0.00014781,-0.00021314,0.0,0 STARLINK-4788,1 53863U 22114AX  22304.58334491 -.00021314  00000-0 -14781-3 0  9990,2 53863  53.2152  48.2371 0002877  17.6278 186.9231 15.73194291  1301,6727.911,91.534,351.712,347.841,0.0
53863.0,STARLINK-4788,PAYLOAD,2022-10-31 22:00:01,15.73192774,0.0002831,53.2147,46.5868,13.577,279.9546,-0.00015287,-0.00022018,0.0,0 STARLINK-4788,1 53863U 22114AX  22304.91668981 -.00022018  00000-0 -15287-3 0  9995,2 53863  53.2147  46.5868 0002831  13.5770 279.9546 15.73192774  1305,6727.916,91.534,351.685,347.876,0.0
53863.0,STARLINK-4788,PAYLOAD,2022-11-01 00:00:02,15.731599,0.000272,53.2149,46.1739,13.3864,32.3825,0.00037202,0.00051829,0.0,0 STARLINK-4788,1 53863U 22114AX  22305.00002315  .00051829  00000-0  37202-3 0  9990,2 53863  53.2149  46.1739 0002720  13.3864  32.3825 15.73159900  7333,6728.01,91.536,351.705,348.0440000000001,0.0
53863.0,STARLINK-4788,PAYLOAD,2022-11-01 14:00:01,15.73186142,0.0002982,53.2151,43.2884,16.9949,94.3348,0.00046824,0.00065579,0.0,0 STARLINK-4788,1 53863U 22114AX  22305.58334491  .00065579  00000-0  46824-3 0  9993,2 53863  53.2151  43.2884 0002982  16.9949  94.3348 15.73186142  1305,6727.935,91.534,351.806,347.793,0.0
53863.0,STARLINK-4788,PAYLOAD,2022-11-01 22:00:00,15.73157297,0.0002862,53.2168,41.6414,22.3879,177.8439,0.00052972,0.00074255,0.0,0 STARLINK-4788,1 53863U 22114AX  22305.91667824  .00074255  00000-0  52972-3 0  9991,2 53863  53.2168  41.6414 0002862  22.3879 177.8439 15.73157297  7486,6728.017,91.536,351.807,347.956,0.0
53863.0,STARLINK-4788,PAYLOAD,2022-11-02 14:00:01,15.73205892,0.000296,53.2176,38.3436,23.6237,354.4522,-2.149e-05,-3.639e-05,0.0,0 STARLINK-4788,1 53863U 22114AX  22306.58334491 -.00003639  00000-0 -21490-4 0  9998,2 53863  53.2176  38.3436 0002960  23.6237 354.4522 15.73205892  1309,6727.878000000002,91.533,351.735,347.75199999999984,0.0
53863.0,STARLINK-4788,PAYLOAD,2022-11-02 22:00:00,15.73253349,0.0003143,53.2149,36.6889,11.1924,95.922,-0.00051707,-0.00072753,0.0,0 STARLINK-4788,1 53863U 22114AX  22306.91667824 -.00072753  00000-0 -51707-3 0  9990,2 53863  53.2149  36.6889 0003143  11.1924  95.9220 15.73253349  7646,6727.743,91.53,351.723,347.494,0.0
53863.0,STARLINK-4788,PAYLOAD,2022-11-03 08:00:01,15.73247291,0.0003093,53.2154,34.6264,18.3197,290.0009,-0.00014788,-0.00021372,0.0,0 STARLINK-4788,1 53863U 22114AX  22307.33334491 -.00021372  00000-0 -14788-3 0  9997,2 53863  53.2154  34.6264 0003093  18.3197 290.0009 15.73247291  7701,6727.76,91.53,351.706,347.5440000000001,0.0
53863.0,STARLINK-4788,PAYLOAD,2022-11-03 14:00:01,15.73234861,0.0003341,53.2154,33.3907,17.4924,267.5556,-0.0001495,-0.00021589,0.0,0 STARLINK-4788,1 53863U 22114AX  22307.58334491 -.00021589  00000-0 -14950-3 0  9995,2 53863  53.2154  33.3907 0003341  17.4924 267.5556 15.73234861  1300,6727.795999999999,91.531,351.909,347.413,0.0
53863.0,STARLINK-4788,PAYLOAD,2022-11-03 22:00:00,15.73256895,0.0003238,53.2157,31.74,11.9313,2.0721,-0.00078937,-0.00110272,0.0,0 STARLINK-4788,1 53863U 22114AX  22307.91667824 -.00110272  00000-0 -78937-3 0  9994,2 53863  53.2157  31.7400 0003238  11.9313   2.0721 15.73256895  1306,6727.733,91.53,351.776,347.42,0.0
53863.0,STARLINK-4788,PAYLOAD,2022-11-04 06:00:00,15.73193684,0.0003164,53.2161,30.0898,13.1794,89.7725,-0.00039392,-0.00055545,0.0,0 STARLINK-4788,1 53863U 22114AX  22308.25001157 -.00055545  00000-0 -39392-3 0  9996,2 53863  53.2161  30.0898 0003164  13.1794  89.7725 15.73193684  7857,6727.913000000001,91.534,351.907,347.649,0.0
53863.0,STARLINK-4788,PAYLOAD,2022-11-04 14:00:01,15.73183264,0.0003377,53.2168,28.4443,14.3814,177.4631,-0.0011859,-0.00163808,0.0,0 STARLINK-4788,1 53863U 22114AX  22308.58334491 -.00163808  00000-0 -11859-2 0  9991,2 53863  53.2168  28.4443 0003377  14.3814 177.4631 15.73183264  1301,6727.943,91.534,352.08,347.536,0.0
53863.0,STARLINK-4788,PAYLOAD,2022-11-04 22:00:01,15.73214268,0.0003286,53.2154,26.7911,8.043,272.8343,-0.001055,-0.00146285,0.0,0 STARLINK-4788,1 53863U 22114AX  22308.91668981 -.00146285  00000-0 -10550-2 0  9999,2 53863  53.2154  26.7911 0003286   8.0430 272.8343 15.73214268  7956,6727.854,91.532,351.93,347.509,0.0
53863.0,STARLINK-4788,PAYLOAD,2022-11-05 14:00:01,15.7330567,0.0003596,53.2158,23.4939,10.7676,87.8046,4.081e-05,5.134e-05,0.0,0 STARLINK-4788,1 53863U 22114AX  22309.58335648  .00005134  00000-0  40810-4 0  9993,2 53863  53.2158  23.4939 0003596  10.7676  87.8046 15.73305670  1305,6727.594,91.527,351.87800000000016,347.04,0.0
53863.0,STARLINK-4788,PAYLOAD,2022-11-05 22:00:01,15.73292534,0.0003467,53.2161,21.8427,5.8837,181.7613,-0.00095311,-0.00132876,0.0,0 STARLINK-4788,1 53863U 22114AX  22309.91668981 -.00132876  00000-0 -95311-3 0  9990,2 53863  53.2161  21.8427 0003467   5.8837 181.7613 15.73292534  8118,6727.630999999999,91.528,351.829,347.164,0.0
53863.0,STARLINK-4788,PAYLOAD,2022-11-06 14:00:01,15.73091047,0.0003703,53.216,18.5451,6.5868,358.8808,0.0004974,0.00069458,0.0,0 STARLINK-4788,1 53863U 22114AX  22310.58334491  .00069458  00000-0  49740-3 0  9999,2 53863  53.2160  18.5451 0003703   6.5868 358.8808 15.73091047  1305,6728.206,91.54,352.56199999999984,347.579,0.0
